{
  "type": "FeatureCollection",
  "features": [
    {
      "type": "Feature",
      "properties": {
        "norad_id": 30050,
        "name": "FENGYUN 1C DEB",
        "group": "fengyun-1c-debris",
        "lat": 76.18387157530047,
        "lon": 164.4220632084246,
        "alt_km": 968.0573275204761,
        "timestamp": "2025-12-24T05:51:19.881841+00:00",
        "meta_object_name": "FENGYUN 1C DEB",
        "meta_object_id": "1999-025PB",
        "meta_epoch": "2025-12-23T16:22:05.440224",
        "meta_mean_motion": 13.85080667,
        "meta_eccentricity": 0.01710656,
        "meta_inclination": 96.8192,
        "meta_ra_of_asc_node": 314.8978,
        "meta_arg_of_pericenter": 359.1427,
        "meta_mean_anomaly": 180.4174,
        "meta_ephemeris_type": 0,
        "meta_classification_type": "U",
        "meta_norad_cat_id": 30050,
        "meta_element_set_no": 999,
        "meta_rev_at_epoch": 95353,
        "meta_bstar": 0.0011355454,
        "meta_mean_motion_dot": 1.414e-05,
        "meta_mean_motion_ddot": 0,
        "tle_line1": "1 30050U 99025PB  25357.68200741  .00001414  00000+0  11355-2 0  9999",
        "tle_line2": "2 30050  96.8192 314.8978 0171065 359.1427 180.4174 13.85080667953530"
      },
      "geometry": {
        "type": "Point",
        "coordinates": [
          164.4220632084246,
          76.18387157530047
        ]
      }
    },
    {
      "type": "Feature",
      "properties": {
        "norad_id": 30052,
        "name": "FENGYUN 1C DEB",
        "group": "fengyun-1c-debris",
        "lat": -59.16614686559144,
        "lon": -172.4061397310992,
        "alt_km": 826.3614630967613,
        "timestamp": "2025-12-24T05:51:19.881851+00:00",
        "meta_object_name": "FENGYUN 1C DEB",
        "meta_object_id": "1999-025PD",
        "meta_epoch": "2025-12-23T08:02:45.257856",
        "meta_mean_motion": 13.72972334,
        "meta_eccentricity": 0.02893245,
        "meta_inclination": 99.2983,
        "meta_ra_of_asc_node": 22.6396,
        "meta_arg_of_pericenter": 204.4852,
        "meta_mean_anomaly": 224.6813,
        "meta_ephemeris_type": 0,
        "meta_classification_type": "U",
        "meta_norad_cat_id": 30052,
        "meta_element_set_no": 999,
        "meta_rev_at_epoch": 94700,
        "meta_bstar": 0.00041925303,
        "meta_mean_motion_dot": 4.79e-06,
        "meta_mean_motion_ddot": 0,
        "tle_line1": "1 30052U 99025PD  25357.33524604  .00000479  00000+0  41925-3 0  9997",
        "tle_line2": "2 30052  99.2983  22.6396 0289324 204.4852 224.6813 13.72972334947000"
      },
      "geometry": {
        "type": "Point",
        "coordinates": [
          -172.4061397310992,
          -59.16614686559144
        ]
      }
    },
    {
      "type": "Feature",
      "properties": {
        "norad_id": 30053,
        "name": "FENGYUN 1C DEB",
        "group": "fengyun-1c-debris",
        "lat": -47.47895146127936,
        "lon": -18.914072487743674,
        "alt_km": 864.138371653914,
        "timestamp": "2025-12-24T05:51:19.881862+00:00",
        "meta_object_name": "FENGYUN 1C DEB",
        "meta_object_id": "1999-025PE",
        "meta_epoch": "2025-12-23T11:48:31.178592",
        "meta_mean_motion": 13.9419757,
        "meta_eccentricity": 0.03314562,
        "meta_inclination": 98.576,
        "meta_ra_of_asc_node": 169.8578,
        "meta_arg_of_pericenter": 308.5155,
        "meta_mean_anomaly": 111.2397,
        "meta_ephemeris_type": 0,
        "meta_classification_type": "U",
        "meta_norad_cat_id": 30053,
        "meta_element_set_no": 999,
        "meta_rev_at_epoch": 95136,
        "meta_bstar": 0.0015987647,
        "meta_mean_motion_dot": 3.306e-05,
        "meta_mean_motion_ddot": 0,
        "tle_line1": "1 30053U 99025PE  25357.49202753  .00003306  00000+0  15988-2 0  9994",
        "tle_line2": "2 30053  98.5760 169.8578 0331456 308.5155 111.2397 13.94197570951365"
      },
      "geometry": {
        "type": "Point",
        "coordinates": [
          -18.914072487743674,
          -47.47895146127936
        ]
      }
    },
    {
      "type": "Feature",
      "properties": {
        "norad_id": 30054,
        "name": "FENGYUN 1C DEB",
        "group": "fengyun-1c-debris",
        "lat": 47.79172946841444,
        "lon": 19.6985464544289,
        "alt_km": 932.4471482964163,
        "timestamp": "2025-12-24T05:51:19.881873+00:00",
        "meta_object_name": "FENGYUN 1C DEB",
        "meta_object_id": "1999-025PF",
        "meta_epoch": "2025-12-23T01:40:34.627008",
        "meta_mean_motion": 13.69877012,
        "meta_eccentricity": 0.02754295,
        "meta_inclination": 99.3704,
        "meta_ra_of_asc_node": 29.0434,
        "meta_arg_of_pericenter": 338.388,
        "meta_mean_anomaly": 40.0665,
        "meta_ephemeris_type": 0,
        "meta_classification_type": "U",
        "meta_norad_cat_id": 30054,
        "meta_element_set_no": 999,
        "meta_rev_at_epoch": 94490,
        "meta_bstar": 0.00049008719,
        "meta_mean_motion_dot": 5.16e-06,
        "meta_mean_motion_ddot": 0,
        "tle_line1": "1 30054U 99025PF  25357.06984522  .00000516  00000+0  49009-3 0  9991",
        "tle_line2": "2 30054  99.3704  29.0434 0275429 338.3880  40.0665 13.69877012944901"
      },
      "geometry": {
        "type": "Point",
        "coordinates": [
          19.6985464544289,
          47.79172946841444
        ]
      }
    },
    {
      "type": "Feature",
      "properties": {
        "norad_id": 30056,
        "name": "FENGYUN 1C DEB",
        "group": "fengyun-1c-debris",
        "lat": 21.8243509522112,
        "lon": 5.791498152019325,
        "alt_km": 779.4871344884114,
        "timestamp": "2025-12-24T05:51:19.881883+00:00",
        "meta_object_name": "FENGYUN 1C DEB",
        "meta_object_id": "1999-025PH",
        "meta_epoch": "2025-12-23T11:36:25.753824",
        "meta_mean_motion": 13.74047388,
        "meta_eccentricity": 0.02991213,
        "meta_inclination": 98.3226,
        "meta_ra_of_asc_node": 181.7674,
        "meta_arg_of_pericenter": 181.8053,
        "meta_mean_anomaly": 178.2045,
        "meta_ephemeris_type": 0,
        "meta_classification_type": "U",
        "meta_norad_cat_id": 30056,
        "meta_element_set_no": 999,
        "meta_rev_at_epoch": 94123,
        "meta_bstar": 0.0023092305,
        "meta_mean_motion_dot": 2.964e-05,
        "meta_mean_motion_ddot": 0,
        "tle_line1": "1 30056U 99025PH  25357.48363141  .00002964  00000+0  23092-2 0  9999",
        "tle_line2": "2 30056  98.3226 181.7674 0299121 181.8053 178.2045 13.74047388941231"
      },
      "geometry": {
        "type": "Point",
        "coordinates": [
          5.791498152019325,
          21.8243509522112
        ]
      }
    },
    {
      "type": "Feature",
      "properties": {
        "norad_id": 30057,
        "name": "FENGYUN 1C DEB",
        "group": "fengyun-1c-debris",
        "lat": -53.7613874193274,
        "lon": 78.20206192620363,
        "alt_km": 1267.2585445110826,
        "timestamp": "2025-12-24T05:51:19.881893+00:00",
        "meta_object_name": "FENGYUN 1C DEB",
        "meta_object_id": "1999-025PJ",
        "meta_epoch": "2025-12-23T10:47:18.846816",
        "meta_mean_motion": 13.57146809,
        "meta_eccentricity": 0.02918995,
        "meta_inclination": 98.8825,
        "meta_ra_of_asc_node": 65.1642,
        "meta_arg_of_pericenter": 118.931,
        "meta_mean_anomaly": 267.4713,
        "meta_ephemeris_type": 0,
        "meta_classification_type": "U",
        "meta_norad_cat_id": 30057,
        "meta_element_set_no": 999,
        "meta_rev_at_epoch": 93381,
        "meta_bstar": 0.001104167,
        "meta_mean_motion_dot": 1.001e-05,
        "meta_mean_motion_ddot": 0,
        "tle_line1": "1 30057U 99025PJ  25357.44952369  .00001001  00000+0  11042-2 0  9995",
        "tle_line2": "2 30057  98.8825  65.1642 0291899 118.9310 267.4713 13.57146809933810"
      },
      "geometry": {
        "type": "Point",
        "coordinates": [
          78.20206192620363,
          -53.7613874193274
        ]
      }
    },
    {
      "type": "Feature",
      "properties": {
        "norad_id": 30058,
        "name": "FENGYUN 1C DEB",
        "group": "fengyun-1c-debris",
        "lat": 1.4803736926359803,
        "lon": 1.8611057955411396,
        "alt_km": 1201.313414034952,
        "timestamp": "2025-12-24T05:51:19.881903+00:00",
        "meta_object_name": "FENGYUN 1C DEB",
        "meta_object_id": "1999-025PK",
        "meta_epoch": "2025-12-22T11:50:15.237888",
        "meta_mean_motion": 13.48248394,
        "meta_eccentricity": 0.03156765,
        "meta_inclination": 99.6497,
        "meta_ra_of_asc_node": 0.4197,
        "meta_arg_of_pericenter": 128.1499,
        "meta_mean_anomaly": 23.3083,
        "meta_ephemeris_type": 0,
        "meta_classification_type": "U",
        "meta_norad_cat_id": 30058,
        "meta_element_set_no": 999,
        "meta_rev_at_epoch": 92979,
        "meta_bstar": 0.00064800713,
        "meta_mean_motion_dot": 5.04e-06,
        "meta_mean_motion_ddot": 0,
        "tle_line1": "1 30058U 99025PK  25356.49323192  .00000504  00000+0  64801-3 0  9995",
        "tle_line2": "2 30058  99.6497   0.4197 0315676 128.1499  23.3083 13.48248394929796"
      },
      "geometry": {
        "type": "Point",
        "coordinates": [
          1.8611057955411396,
          1.4803736926359803
        ]
      }
    }
  ]
}